{
  "norad_id": 61706,
  "name": "STARLINK-32533",
  "history": [
    {
      "epoch": "2026-03-28T22:28:04.741536Z",
      "apogee_km": 476.2368353559459,
      "perigee_km": 474.1739792913413,
      "latitude_deg": -1.4526588198972252e-05,
      "longitude_deg": -97.79883046812841,
      "height_km": 476.11908481662374,
      "semi_major_axis_km": 6853.342407323644,
      "eccentricity": 0.0001505,
      "inclination_deg": 53.1611,
      "raan_deg": 65.5704,
      "arg_perigee_deg": 90.8781,
      "mean_anomaly_deg": 269.2392,
      "mean_motion_rev_day": 15.30203236
    },
    {
      "epoch": "2026-03-29T04:44:17.337696Z",
      "apogee_km": 476.18771974498304,
      "perigee_km": 474.22492221785524,
      "latitude_deg": 1.65646032146178e-05,
      "longitude_deg": 166.67880221952137,
      "height_km": 476.08498701324845,
      "semi_major_axis_km": 6853.343320981419,
      "eccentricity": 0.0001432,
      "inclination_deg": 53.1611,
      "raan_deg": 64.358,
      "arg_perigee_deg": 88.873,
      "mean_anomaly_deg": 271.2435,
      "mean_motion_rev_day": 15.3020293
    },
    {
      "epoch": "2026-03-29T21:58:52.258368Z",
      "apogee_km": 476.24352326851204,
      "perigee_km": 474.2283574891235,
      "latitude_deg": -1.695592164521952e-05,
      "longitude_deg": -96.01207141216717,
      "height_km": 476.13326638410365,
      "semi_major_axis_km": 6853.3729403788175,
      "eccentricity": 0.00014702,
      "inclination_deg": 53.1616,
      "raan_deg": 61.0208,
      "arg_perigee_deg": 89.9634,
      "mean_anomaly_deg": 270.1535,
      "mean_motion_rev_day": 15.3019301
    },
    {
      "epoch": "2026-03-30T07:23:11.804064Z",
      "apogee_km": 476.26860068177575,
      "perigee_km": 474.2304035360494,
      "latitude_deg": -8.057783819126882e-06,
      "longitude_deg": 120.69962795705466,
      "height_km": 476.17099469629136,
      "semi_major_axis_km": 6853.386502108912,
      "eccentricity": 0.0001487,
      "inclination_deg": 53.162,
      "raan_deg": 59.2002,
      "arg_perigee_deg": 91.3217,
      "mean_anomaly_deg": 268.7954,
      "mean_motion_rev_day": 15.30188468
    },
    {
      "epoch": "2026-03-30T15:13:27.827904Z",
      "apogee_km": 476.277467103504,
      "perigee_km": 474.2230957320271,
      "latitude_deg": 4.7256827160526064e-05,
      "longitude_deg": 1.2943171753718845,
      "height_km": 476.18145897651834,
      "semi_major_axis_km": 6853.387281417766,
      "eccentricity": 0.00014988,
      "inclination_deg": 53.1622,
      "raan_deg": 57.6835,
      "arg_perigee_deg": 91.8519,
      "mean_anomaly_deg": 268.2654,
      "mean_motion_rev_day": 15.30188207
    },
    {
      "epoch": "2026-03-31T14:44:15.882144Z",
      "apogee_km": 476.1989246422636,
      "perigee_km": 474.30738895898685,
      "latitude_deg": 2.681783021803829e-05,
      "longitude_deg": 3.077918327463318,
      "height_km": 476.2025347237192,
      "semi_major_axis_km": 6853.390156800625,
      "eccentricity": 0.000138,
      "inclination_deg": 53.1626,
      "raan_deg": 53.133,
      "arg_perigee_deg": 93.1022,
      "mean_anomaly_deg": 267.0137,
      "mean_motion_rev_day": 15.30187244
    },
    {
      "epoch": "2026-04-01T14:15:03.618432Z",
      "apogee_km": 476.0588721168624,
      "perigee_km": 474.4428432600198,
      "latitude_deg": -2.5494310318988296e-06,
      "longitude_deg": 4.860041245140705,
      "height_km": 476.3847882472926,
      "semi_major_axis_km": 6853.387857688441,
      "eccentricity": 0.0001179,
      "inclination_deg": 53.1614,
      "raan_deg": 48.5797,
      "arg_perigee_deg": 106.9466,
      "mean_anomaly_deg": 253.1664,
      "mean_motion_rev_day": 15.30188014
    },
    {
      "epoch": "2026-04-02T13:45:51.038496Z",
      "apogee_km": 476.0836479921527,
      "perigee_km": 474.3681141957577,
      "latitude_deg": 1.4982430058944304e-05,
      "longitude_deg": 6.6489199367750995,
      "height_km": 476.24271980866143,
      "semi_major_axis_km": 6853.3628810939545,
      "eccentricity": 0.00012516,
      "inclination_deg": 53.1614,
      "raan_deg": 44.0318,
      "arg_perigee_deg": 97.946,
      "mean_anomaly_deg": 262.1683,
      "mean_motion_rev_day": 15.30196379
    }
  ]
}